[{"OBJECT_NAME":"STARLINK-6170","OBJECT_ID":"2023-090AE","EPOCH":"2026-03-09T22:00:01.999584","MEAN_MOTION":15.081795,"ECCENTRICITY":0.00021157,"INCLINATION":43.0006,"RA_OF_ASC_NODE":260.8246,"ARG_OF_PERICENTER":263.8758,"MEAN_ANOMALY":58.3922,"EPHEMERIS_TYPE":0,"CLASSIFICATION_TYPE":"U","NORAD_CAT_ID":57129,"ELEMENT_SET_NO":999,"REV_AT_EPOCH":577,"BSTAR":0.0049029782,"MEAN_MOTION_DOT":0.00077734,"MEAN_MOTION_DDOT":0},{"OBJECT_NAME":"QPS-SAR-7 (TSUKUYOMI-II)","OBJECT_ID":"2024-066F","EPOCH":"2026-03-09T22:44:25.024704","MEAN_MOTION":15.07520552,"ECCENTRICITY":3.06e-5,"INCLINATION":45.6053,"RA_OF_ASC_NODE":45.6252,"ARG_OF_PERICENTER":310.671,"MEAN_ANOMALY":49.4148,"EPHEMERIS_TYPE":0,"CLASSIFICATION_TYPE":"U","NORAD_CAT_ID":59447,"ELEMENT_SET_NO":999,"REV_AT_EPOCH":10524,"BSTAR":0.00063712098,"MEAN_MOTION_DOT":9.59e-5,"MEAN_MOTION_DDOT":0}]
